OBJECT_NAME,OBJECT_ID,EPOCH,MEAN_MOTION,ECCENTRICITY,INCLINATION,RA_OF_ASC_NODE,ARG_OF_PERICENTER,MEAN_ANOMALY,EPHEMERIS_TYPE,CLASSIFICATION_TYPE,NORAD_CAT_ID,ELEMENT_SET_NO,REV_AT_EPOCH,BSTAR,MEAN_MOTION_DOT,MEAN_MOTION_DDOT
INTELSAT 23 (IS-23),2012-057A,2026-07-20T20:14:38.723136,1.00276145,.0000474,0.0187,24.4340,102.8760,61.9590,0,U,38867,999,5029,0,-.285E-5,0
FM-6,2013-058A,2026-07-20T07:32:45.898368,1.00266599,.00014211,0.0094,30.1160,148.1432,116.6637,0,U,39360,999,4640,0,-.17E-6,0
INTELSAT 30 (IS-30),2014-062A,2026-07-20T19:31:16.112352,1.00272290,.0001751,0.0150,52.5146,341.2520,102.5878,0,U,40271,999,713,0,-.151E-5,0
DIRECTV 14,2014-078B,2026-07-20T10:47:38.598720,1.00274313,.0000485,0.0151,57.4012,335.1034,328.3806,0,U,40333,999,4237,0,-.127E-5,0
DIRECTV 15,2015-026A,2026-07-20T16:03:42.862176,1.00271127,.0000383,0.0204,79.1591,332.8671,24.4550,0,U,40663,999,4079,0,-.103E-5,0
SKY MEXICO-1,2015-026B,2026-07-20T19:35:53.167776,1.00270788,.0002625,0.0313,263.8149,229.7750,20.1676,0,U,40664,999,4079,0,-.234E-5,0
INTELSAT 34 (IS-34),2015-039A,2026-07-20T17:59:49.663968,1.00272186,.0000729,0.0123,344.4602,41.9549,126.5734,0,U,40874,999,3997,0,-.286E-5,0
INTELSAT 31 (IS-31),2016-035A,2026-07-20T19:31:16.112352,1.00271225,.0001014,0.0314,260.0992,53.5948,182.6577,0,U,41581,999,3702,0,-.151E-5,0
INTELSAT 36 (IS-36),2016-053A,2026-07-20T20:17:52.304928,1.00271703,.0002449,0.0094,24.9134,324.3167,322.3424,0,U,41747,999,3629,0,-.24E-6,0
INTELSAT 32E (IS-32E),2017-007B,2026-07-20T14:00:07.443936,1.00273345,.0000632,0.0128,27.7863,350.1536,87.2632,0,U,41945,999,3456,0,-.27E-5,0
INTELSAT 35E (IS-35E),2017-041A,2026-07-20T20:06:38.816064,1.00269814,.0002175,0.0213,57.1209,59.2462,89.4146,0,U,42818,999,3315,0,0,0
INTELSAT 37E (IS-37E),2017-059A,2026-07-20T19:53:14.005248,1.00272334,.0002851,0.0186,65.5236,58.2327,95.1452,0,U,42950,999,3240,0,-.141E-5,0
AZERSPACE 2 (IS-38),2018-074A,2026-07-20T20:11:13.085088,1.00272210,.0001531,0.0162,53.8449,57.1460,175.5281,0,U,43632,999,2878,0,.136E-5,0
HORIZONS-3E,2018-074B,2026-07-20T13:29:38.876928,1.00271973,.0000569,0.0423,238.4699,58.8170,12.4432,0,U,43633,999,2867,0,-.32E-6,0
AT&T T-16,2019-034A,2026-07-20T17:20:38.412384,1.00269337,.0000549,0.0140,69.7828,297.6234,90.3851,0,U,44333,999,2597,0,-.115E-5,0
INTELSAT 39 (IS-39),2019-049B,2026-07-20T17:52:21.578016,1.00259151,.0000185,0.0184,50.2484,231.2802,347.0224,0,U,44476,999,2546,0,0,0
GALAXY 30 (G-30),2020-056C,2026-07-20T15:57:20.970720,1.00270661,.0002159,0.0184,58.7653,56.9350,297.0671,0,U,46114,999,2162,0,.36E-6,0
GALAXY 33 (G-33),2022-128A,2026-07-20T17:37:44.282784,1.00275650,.0001801,0.0184,315.6670,166.6525,307.6068,0,U,54026,999,1407,0,.78E-6,0
GALAXY 34 (G-34),2022-128B,2026-07-20T15:56:13.578720,1.00274627,.0001858,0.0167,50.8823,70.9665,286.6531,0,U,54027,999,1424,0,0,0
GALAXY 31 (G-31),2022-153A,2026-07-20T15:58:35.851008,1.00272888,.0001253,0.0033,232.6163,248.9777,295.4788,0,U,54243,999,746,0,.12E-6,0
GALAXY 32 (G-32),2022-153B,2026-07-20T19:32:16.016064,1.00271812,.0001457,0.0098,38.3156,14.6512,87.6828,0,U,54244,999,1348,0,-.174E-5,0
GALAXY 35 (G-35),2022-170A,2026-07-20T19:31:38.576352,1.00272206,.0002017,0.0211,95.2906,21.4737,21.6193,0,U,54741,999,1323,0,-.163E-5,0
GALAXY 36 (G-36),2022-170B,2026-07-20T19:33:00.944064,1.00271684,.0002738,0.0202,134.5009,325.9776,42.3557,0,U,54742,999,1311,0,-.185E-5,0
GALAXY 37 (G-37),2023-112A,2026-07-20T14:14:10.635360,1.00272474,.0002044,0.0202,57.4932,59.4893,267.9196,0,U,57493,999,1087,0,.47E-6,0
